NORAD_CAT_ID,OBJECT_NAME,OBJECT_TYPE,EPOCH,MEAN_MOTION,ECCENTRICITY,INCLINATION,RA_OF_ASC_NODE,ARG_OF_PERICENTER,MEAN_ANOMALY,BSTAR,MEAN_MOTION_DOT,MEAN_MOTION_DDOT,TLE_LINE0,TLE_LINE1,TLE_LINE2,SEMIMAJOR_AXIS,PERIOD,APOGEE,PERIGEE,DECAYED
51808.0,STARLINK-3609,PAYLOAD,2022-11-30 09:19:39,15.08837656,0.0002488,53.216,305.0406,33.9363,326.1788,-0.00013515,-2.439e-05,0.0,0 STARLINK-3609,1 51808U 22017AS  22334.38865644 -.00002439  00000-0 -13515-3 0  9990,2 51808  53.2160 305.0406 0002488  33.9363 326.1788 15.08837656 43515,6917.888000000001,95.438,541.474,538.031,0.0
51808.0,STARLINK-3609,PAYLOAD,2022-11-30 15:41:12,15.08847422,0.0002504,53.2168,303.851,34.6868,325.4287,-8.272e-05,-1.605e-05,0.0,0 STARLINK-3609,1 51808U 22017AS  22334.65361488 -.00001605  00000-0 -82720-4 0  9996,2 51808  53.2168 303.8510 0002504  34.6868 325.4287 15.08847422 43554,6917.858,95.437,541.455,537.99,0.0
51808.0,STARLINK-3609,PAYLOAD,2022-12-01 01:13:30,15.08845331,0.0002513,53.2167,302.0663,35.4538,324.6621,0.00011422,1.53e-05,0.0,0 STARLINK-3609,1 51808U 22017AS  22335.05105194  .00001530  00000-0  11422-3 0  9996,2 51808  53.2167 302.0663 0002513  35.4538 324.6621 15.08845331 43714,6917.864000000001,95.437,541.4680000000002,537.991,0.0
51808.0,STARLINK-3609,PAYLOAD,2022-12-01 09:10:27,15.08832724,0.0002447,53.2158,300.5796,34.9602,325.155,8.4595e-05,1.058e-05,0.0,0 STARLINK-3609,1 51808U 22017AS  22335.38226164  .00001058  00000-0  84595-4 0  9990,2 51808  53.2158 300.5796 0002447  34.9602 325.1550 15.08832724 43669,6917.903,95.438,541.46,538.075,0.0
51808.0,STARLINK-3609,PAYLOAD,2022-12-01 21:53:31,15.08841768,0.0002498,53.2158,298.2012,35.9401,324.1759,0.00013085,1.795e-05,0.0,0 STARLINK-3609,1 51808U 22017AS  22335.91217586  .00001795  00000-0  13085-3 0  9990,2 51808  53.2158 298.2012 0002498  35.9401 324.1759 15.08841768 43845,6917.875,95.437,541.4680000000002,538.012,0.0
51808.0,STARLINK-3609,PAYLOAD,2022-12-02 04:15:04,15.0884668,0.0002496,53.2151,297.0115,32.6344,327.4802,0.00029545,4.418e-05,0.0,0 STARLINK-3609,1 51808U 22017AS  22336.17713579  .00004418  00000-0  29545-3 0  9995,2 51808  53.2151 297.0115 0002496  32.6344 327.4802 15.08846680 43783,6917.86,95.437,541.452,537.998,0.0
51808.0,STARLINK-3609,PAYLOAD,2022-12-02 21:44:19,15.08842536,0.000243,53.216,293.7401,33.2168,326.8976,0.0001141,1.528e-05,0.0,0 STARLINK-3609,1 51808U 22017AS  22336.90577838  .00001528  00000-0  11410-3 0  9993,2 51808  53.2160 293.7401 0002430  33.2168 326.8976 15.08842536 43896,6917.873000000001,95.437,541.419,538.057,0.0
51808.0,STARLINK-3609,PAYLOAD,2022-12-03 00:55:05,15.08839487,0.0002461,53.2154,293.1454,37.802,322.3145,5.8548e-06,-1.95e-06,0.0,0 STARLINK-3609,1 51808U 22017AS  22337.03825946 -.00000195  00000-0  58548-5 0  9999,2 51808  53.2154 293.1454 0002461  37.8020 322.3145 15.08839487 44017,6917.882,95.438,541.4490000000002,538.044,0.0
51808.0,STARLINK-3609,PAYLOAD,2022-12-03 13:38:11,15.08828923,0.0002521,53.2153,290.7668,33.0673,327.0477,-7.065399999999999e-05,-1.412e-05,0.0,0 STARLINK-3609,1 51808U 22017AS  22337.56818617 -.00001412  00000-0 -70654-4 0  9999,2 51808  53.2153 290.7668 0002521  33.0673 327.0477 15.08828923 43994,6917.9140000000025,95.438,541.523,538.035,0.0
51808.0,STARLINK-3609,PAYLOAD,2022-12-04 03:56:39,15.08841405,0.0002576,53.2153,288.09,31.8337,328.2811,1.5391e-05,-4.4e-07,0.0,0 STARLINK-3609,1 51808U 22017AS  22338.16434122 -.00000044  00000-0  15391-4 0  9997,2 51808  53.2153 288.0900 0002576  31.8337 328.2811 15.08841405 44183,6917.876,95.437,541.523,537.9590000000002,0.0
51808.0,STARLINK-3609,PAYLOAD,2022-12-04 13:28:57,15.08839927,0.0002605,53.2154,286.3056,33.4912,326.6245,-9.7994e-06,-4.44e-06,0.0,0 STARLINK-3609,1 51808U 22017AS  22338.56178214 -.00000444  00000-0 -97994-5 0  9993,2 51808  53.2154 286.3056 0002605  33.4912 326.6245 15.08839927 44142,6917.880999999999,95.438,541.548,537.944,0.0
51808.0,STARLINK-3609,PAYLOAD,2022-12-05 08:33:35,15.08839742,0.0002644,53.2154,282.7373,33.3797,326.7362,9.642e-05,1.246e-05,0.0,0 STARLINK-3609,1 51808U 22017AS  22339.35666373  .00001246  00000-0  96420-4 0  9990,2 51808  53.2154 282.7373 0002644  33.3797 326.7362 15.08839742 44367,6917.880999999999,95.438,541.575,537.9169999999998,0.0
51808.0,STARLINK-3609,PAYLOAD,2022-12-06 13:10:31,15.08841577,0.0002472,53.2155,277.3848,33.6989,326.416,4.0477e-05,3.56e-06,0.0,0 STARLINK-3609,1 51808U 22017AS  22340.54898115  .00000356  00000-0  40477-4 0  9996,2 51808  53.2155 277.3848 0002472  33.6989 326.4160 15.08841577 44542,6917.876,95.437,541.451,538.03,0.0
51808.0,STARLINK-3609,PAYLOAD,2022-12-06 19:32:05,15.08835501,0.000293,53.2157,276.1969,42.1405,317.9812,-3.5264e-05,-8.5e-06,0.0,0 STARLINK-3609,1 51808U 22017AS  22340.81394709 -.00000850  00000-0 -35264-4 0  9995,2 51808  53.2157 276.1969 0002930  42.1405 317.9812 15.08835501 44484,6917.894,95.438,541.786,537.732,0.0
51808.0,STARLINK-3609,PAYLOAD,2022-12-07 00:18:14,15.08824679,0.0002401,53.2156,275.3031,34.8989,325.216,-0.00020141,-3.491e-05,0.0,0 STARLINK-3609,1 51808U 22017AS  22341.01267068 -.00003491  00000-0 -20141-3 0  9996,2 51808  53.2156 275.3031 0002401  34.8989 325.2160 15.08824679 44619,6917.927,95.439,541.453,538.131,0.0
51808.0,STARLINK-3609,PAYLOAD,2022-12-07 13:01:19,15.08836127,0.0002409,53.216,272.9244,33.0423,327.072,1.2843e-05,-8.4e-07,0.0,0 STARLINK-3609,1 51808U 22017AS  22341.54259200 -.00000084  00000-0  12843-4 0  9998,2 51808  53.2160 272.9244 0002409  33.0423 327.0720 15.08836127 44696,6917.892,95.438,541.424,538.091,0.0
51808.0,STARLINK-3609,PAYLOAD,2022-12-07 19:22:52,15.08840734,0.0002395,53.2154,271.7345,31.0596,329.0538,0.00027865,4.149e-05,0.0,0 STARLINK-3609,1 51808U 22017AS  22341.80755165  .00004149  00000-0  27865-3 0  9992,2 51808  53.2154 271.7345 0002395  31.0596 329.0538 15.08840734 44633,6917.878000000002,95.438,541.4,538.086,0.0
51808.0,STARLINK-3609,PAYLOAD,2022-12-08 12:52:06,15.08853408,0.0002508,53.2154,268.4644,30.5267,329.5871,0.00071301,0.00011082,0.0,0 STARLINK-3609,1 51808U 22017AS  22342.53619168  .00011082  00000-0  71301-3 0  9993,2 51808  53.2154 268.4644 0002508  30.5267 329.5871 15.08853408 44742,6917.839,95.437,541.439,537.969,0.0
51808.0,STARLINK-3609,PAYLOAD,2022-12-09 06:21:20,15.08859132,0.0002768999999999,53.2158,265.1927,24.8125,335.3,0.00027744,4.132e-05,0.0,0 STARLINK-3609,1 51808U 22017AS  22343.26482077  .00004132  00000-0  27744-3 0  9991,2 51808  53.2158 265.1927 0002769  24.8125 335.3000 15.08859132 44853,6917.821999999999,95.436,541.602,537.771,0.0
51808.0,STARLINK-3609,PAYLOAD,2022-12-09 20:39:49,15.08827788,0.0002251,53.2154,262.5172,25.0748,335.0353,-0.00022755,-3.907e-05,0.0,0 STARLINK-3609,1 51808U 22017AS  22343.86098777 -.00003907  00000-0 -22755-3 0  9995,2 51808  53.2154 262.5172 0002251  25.0748 335.0353 15.08827788 45044,6917.918000000002,95.438,541.34,538.225,0.0
51808.0,STARLINK-3609,PAYLOAD,2022-12-10 03:01:22,15.088302,0.000226,53.2155,261.328,23.1175,336.9918,-7.1241e-05,-1.422e-05,0.0,0 STARLINK-3609,1 51808U 22017AS  22344.12595076 -.00001422  00000-0 -71241-4 0  9994,2 51808  53.2155 261.3280 0002260  23.1175 336.9918 15.08830200 44987,6917.91,95.438,541.339,538.212,0.0
51808.0,STARLINK-3609,PAYLOAD,2022-12-11 01:16:46,15.08843349,0.000242,53.2157,257.1647,29.7108,330.4021,0.00055899,8.62e-05,0.0,0 STARLINK-3609,1 51808U 22017AS  22345.05331394  .00008620  00000-0  55899-3 0  9993,2 51808  53.2157 257.1647 0002420  29.7108 330.4021 15.08843349 45225,6917.87,95.437,541.409,538.061,0.0
51808.0,STARLINK-3609,PAYLOAD,2022-12-11 18:46:00,15.0884712,0.000237,53.2159,253.8941,33.0758,327.0382,0.00034446,5.199e-05,0.0,0 STARLINK-3609,1 51808U 22017AS  22345.78195252  .00005199  00000-0  34446-3 0  9997,2 51808  53.2159 253.8941 0002370  33.0758 327.0382 15.08847120 45234,6917.859,95.437,541.363,538.0840000000002,0.0
51808.0,STARLINK-3609,PAYLOAD,2022-12-12 02:42:56,15.08840641,0.0002385,53.216,252.4043,32.7775,327.3364,8.35e-05,1.041e-05,0.0,0 STARLINK-3609,1 51808U 22017AS  22346.11315245  .00001041  00000-0  83500-4 0  9999,2 51808  53.2160 252.4043 0002385  32.7775 327.3364 15.08840641 45385,6917.878000000002,95.438,541.393,538.094,0.0
51808.0,STARLINK-3609,PAYLOAD,2022-12-12 04:18:19,15.08838892,0.0002448,53.2151,252.1092,31.0736,329.04,5.6017e-05,6.03e-06,0.0,0 STARLINK-3609,1 51808U 22017AS  22346.17939439  .00000603  00000-0  56017-4 0  9998,2 51808  53.2151 252.1092 0002448  31.0736 329.0400 15.08838892 45290,6917.884,95.438,541.442,538.055,0.0
51808.0,STARLINK-3609,PAYLOAD,2022-12-13 02:33:43,15.08843211,0.000256,53.2148,247.9459,32.164,327.9508,0.00017765,2.54e-05,0.0,0 STARLINK-3609,1 51808U 22017AS  22347.10675454  .00002540  00000-0  17765-3 0  9994,2 51808  53.2148 247.9459 0002560  32.1640 327.9508 15.08843211 45439,6917.871,95.437,541.507,537.965,0.0
51808.0,STARLINK-3609,PAYLOAD,2022-12-14 02:24:30,15.08836703,0.0002549,53.2135,243.4859,31.8593,328.2553,-7.2497e-06,-4.04e-06,0.0,0 STARLINK-3609,1 51808U 22017AS  22348.10035735 -.00000404  00000-0 -72497-5 0  9991,2 51808  53.2135 243.4859 0002549  31.8593 328.2553 15.08836703 45689,6917.89,95.438,541.519,537.992,0.0
51808.0,STARLINK-3609,PAYLOAD,2022-12-14 10:21:26,15.08835171,0.0002502,53.2131,241.9994,32.4848,327.6298,4.0342e-05,3.54e-06,0.0,0 STARLINK-3609,1 51808U 22017AS  22348.43155925  .00000354  00000-0  40342-4 0  9996,2 51808  53.2131 241.9994 0002502  32.4848 327.6298 15.08835171 45639,6917.895,95.438,541.491,538.029,0.0
51808.0,STARLINK-3609,PAYLOAD,2022-12-15 10:12:13,15.08845667,0.0002702,53.2147,237.5379,35.0966,325.0204,0.00015576,2.192e-05,0.0,0 STARLINK-3609,1 51808U 22017AS  22349.42515884  .00002192  00000-0  15576-3 0  9992,2 51808  53.2147 237.5379 0002702  35.0966 325.0204 15.08845667 45883,6917.863,95.437,541.597,537.859,0.0
